{"type": "FeatureCollection", "features": [ {"type": "Feature", "properties": {"norad_id": 31303, "name": "FENGYUN 1C DEB", "group": "fengyun-1c-debris", "lat": 81.27347451774435, "lon": -75.13050244392645, "alt_km": 841.7497747109082, "timestamp": "2025-12-21T07:34:34.797986+00:00", "meta": {"OBJECT_NAME": "FENGYUN 1C DEB", "OBJECT_ID": "1999-025BPM", "EPOCH": "2025-12-20T07:19:42.048192", "MEAN_MOTION": 14.11028021, "ECCENTRICITY": 0.00119055, "INCLINATION": 98.704, "RA_OF_ASC_NODE": 10.274, "ARG_OF_PERICENTER": 131.8938, "MEAN_ANOMALY": 228.3251, "EPHEMERIS_TYPE": 0, "CLASSIFICATION_TYPE": "U", "NORAD_CAT_ID": 31303, "ELEMENT_SET_NO": 999, "REV_AT_EPOCH": 96425, "BSTAR": 6.4777287e-05, "MEAN_MOTION_DOT": 7.4e-07, "MEAN_MOTION_DDOT": 0}, "tle": {"line1": "1 31303U 99025BPM 25354.30534778  .00000074  00000+0  64777-4 0  9996", "line2": "2 31303  98.7040  10.2740 0011905 131.8938 228.3251 14.11028021964252"}}, "geometry": {"type": "Point", "coordinates": [-75.13050244392645, 81.27347451774435]}}, {"type": "Feature", "properties": {"norad_id": 31311, "name": "FENGYUN 1C DEB", "group": "fengyun-1c-debris", "lat": 6.6033448176766365, "lon": 75.76974216782594, "alt_km": 786.9279547152573, "timestamp": "2025-12-21T07:34:34.797996+00:00", "meta": {"OBJECT_NAME": "FENGYUN 1C DEB", "OBJECT_ID": "1999-025BPP", "EPOCH": "2025-12-20T11:27:51.890688", "MEAN_MOTION": 14.29806165, "ECCENTRICITY": 0.00179107, "INCLINATION": 98.8528, "RA_OF_ASC_NODE": 75.9519, "ARG_OF_PERICENTER": 63.8383, "MEAN_ANOMALY": 312.1414, "EPHEMERIS_TYPE": 0, "CLASSIFICATION_TYPE": "U", "NORAD_CAT_ID": 31311, "ELEMENT_SET_NO": 999, "REV_AT_EPOCH": 96332, "BSTAR": 0.0011628788, "MEAN_MOTION_DOT": 2.949e-05, "MEAN_MOTION_DDOT": 0}, "tle": {"line1": "1 31311U 99025BPP 25354.47768392  .00002949  00000+0  11629-2 0  9993", "line2": "2 31311  98.8528  75.9519 0017910  63.8383 312.1414 14.29806165963327"}}, "geometry": {"type": "Point", "coordinates": [75.76974216782594, 6.6033448176766365]}}, {"type": "Feature", "properties": {"norad_id": 31312, "name": "FENGYUN 1C DEB", "group": "fengyun-1c-debris", "lat": 1.317192981760755, "lon": -19.47796541642259, "alt_km": 929.3871648752938, "timestamp": "2025-12-21T07:34:34.798005+00:00", "meta": {"OBJECT_NAME": "FENGYUN 1C DEB", "OBJECT_ID": "1999-025BPQ", "EPOCH": "2025-12-15T05:56:52.525824", "MEAN_MOTION": 14.00925702, "ECCENTRICITY": 0.00580012, "INCLINATION": 98.8604, "RA_OF_ASC_NODE": 334.8421, "ARG_OF_PERICENTER": 229.1743, "MEAN_ANOMALY": 146.4845, "EPHEMERIS_TYPE": 0, "CLASSIFICATION_TYPE": "U", "NORAD_CAT_ID": 31312, "ELEMENT_SET_NO": 999, "REV_AT_EPOCH": 95181, "BSTAR": 0.00060391584, "MEAN_MOTION_DOT": 8.73e-06, "MEAN_MOTION_DDOT": 0}, "tle": {"line1": "1 31312U 99025BPQ 25349.24783016  .00000873  00000+0  60392-3 0  9999", "line2": "2 31312  98.8604 334.8421 0058001 229.1743 146.4845 14.00925702951810"}}, "geometry": {"type": "Point", "coordinates": [-19.47796541642259, 1.317192981760755]}}, {"type": "Feature", "properties": {"norad_id": 31313, "name": "FENGYUN 1C DEB", "group": "fengyun-1c-debris", "lat": -15.327005407806256, "lon": -98.11414285879759, "alt_km": 854.386718504742, "timestamp": "2025-12-21T07:34:34.798014+00:00", "meta": {"OBJECT_NAME": "FENGYUN 1C DEB", "OBJECT_ID": "1999-025BPR", "EPOCH": "2025-12-20T16:27:15.687072", "MEAN_MOTION": 14.22283388, "ECCENTRICITY": 0.00450186, "INCLINATION": 99.0155, "RA_OF_ASC_NODE": 258.7479, "ARG_OF_PERICENTER": 158.3164, "MEAN_ANOMALY": 201.9931, "EPHEMERIS_TYPE": 0, "CLASSIFICATION_TYPE": "U", "NORAD_CAT_ID": 31313, "ELEMENT_SET_NO": 999, "REV_AT_EPOCH": 97175, "BSTAR": 0.00020600772, "MEAN_MOTION_DOT": 4.16e-06, "MEAN_MOTION_DDOT": 0}, "tle": {"line1": "1 31313U 99025BPR 25354.68559823  .00000416  00000+0  20601-3 0  9993", "line2": "2 31313  99.0155 258.7479 0045018 158.3164 201.9931 14.22283388971755"}}, "geometry": {"type": "Point", "coordinates": [-98.11414285879759, -15.327005407806256]}}, {"type": "Feature", "properties": {"norad_id": 31314, "name": "FENGYUN 1C DEB", "group": "fengyun-1c-debris", "lat": -37.53674447205144, "lon": 162.2357161159058, "alt_km": 907.0418464977838, "timestamp": "2025-12-21T07:34:34.798023+00:00", "meta": {"OBJECT_NAME": "FENGYUN 1C DEB", "OBJECT_ID": "1999-025BPS", "EPOCH": "2025-12-19T16:56:01.661856", "MEAN_MOTION": 14.04930177, "ECCENTRICITY": 0.00784549, "INCLINATION": 98.8218, "RA_OF_ASC_NODE": 347.5232, "ARG_OF_PERICENTER": 337.7634, "MEAN_ANOMALY": 22.0138, "EPHEMERIS_TYPE": 0, "CLASSIFICATION_TYPE": "U", "NORAD_CAT_ID": 31314, "ELEMENT_SET_NO": 999, "REV_AT_EPOCH": 60912, "BSTAR": 0.00037467706, "MEAN_MOTION_DOT": 5.76e-06, "MEAN_MOTION_DDOT": 0}, "tle": {"line1": "1 31314U 99025BPS 25353.70557479  .00000576  00000+0  37468-3 0  9997", "line2": "2 31314  98.8218 347.5232 0078454 337.7634  22.0138 14.04930177609127"}}, "geometry": {"type": "Point", "coordinates": [162.2357161159058, -37.53674447205144]}}, {"type": "Feature", "properties": {"norad_id": 31319, "name": "FENGYUN 1C DEB", "group": "fengyun-1c-debris", "lat": -79.51563276591446, "lon": 16.35978135404732, "alt_km": 1103.6463045354785, "timestamp": "2025-12-21T07:34:34.798033+00:00", "meta": {"OBJECT_NAME": "FENGYUN 1C DEB", "OBJECT_ID": "1999-025BPX", "EPOCH": "2025-12-19T11:29:54.645216", "MEAN_MOTION": 13.75830956, "ECCENTRICITY": 0.017066, "INCLINATION": 98.8311, "RA_OF_ASC_NODE": 251.8032, "ARG_OF_PERICENTER": 69.0496, "MEAN_ANOMALY": 104.308, "EPHEMERIS_TYPE": 0, "CLASSIFICATION_TYPE": "U", "NORAD_CAT_ID": 31319, "ELEMENT_SET_NO": 999, "REV_AT_EPOCH": 93780, "BSTAR": 0.00017244, "MEAN_MOTION_DOT": 1.47e-06, "MEAN_MOTION_DDOT": 0}, "tle": {"line1": "1 31319U 99025BPX 25353.47910469  .00000147  00000+0  17244-3 0  9992", "line2": "2 31319  98.8311 251.8032 0170660  69.0496 104.3080 13.75830956937804"}}, "geometry": {"type": "Point", "coordinates": [16.35978135404732, -79.51563276591446]}}, {"type": "Feature", "properties": {"norad_id": 31321, "name": "FENGYUN 1C DEB", "group": "fengyun-1c-debris", "lat": -69.43362487701323, "lon": 98.17129875383151, "alt_km": 869.0844056560945, "timestamp": "2025-12-21T07:34:34.798041+00:00", "meta": {"OBJECT_NAME": "FENGYUN 1C DEB", "OBJECT_ID": "1999-025BPZ", "EPOCH": "2025-12-20T11:31:59.914848", "MEAN_MOTION": 14.13827217, "ECCENTRICITY": 0.00303351, "INCLINATION": 98.733, "RA_OF_ASC_NODE": 73.1719, "ARG_OF_PERICENTER": 155.8527, "MEAN_ANOMALY": 204.4075, "EPHEMERIS_TYPE": 0, "CLASSIFICATION_TYPE": "U", "NORAD_CAT_ID": 31321, "ELEMENT_SET_NO": 999, "REV_AT_EPOCH": 57493, "BSTAR": 0.00012067042, "MEAN_MOTION_DOT": 1.87e-06, "MEAN_MOTION_DDOT": 0}, "tle": {"line1": "1 31321U 99025BPZ 25354.48055457  .00000187  00000+0  12067-3 0  9996", "line2": "2 31321  98.7330  73.1719 0030335 155.8527 204.4075 14.13827217574933"}}, "geometry": {"type": "Point", "coordinates": [98.17129875383151, -69.43362487701323]}}, {"type": "Feature", "properties": {"norad_id": 31322, "name": "FENGYUN 1C DEB", "group": "fengyun-1c-debris", "lat": 32.81488629592496, "lon": -116.21284308452371, "alt_km": 1150.539506792241, "timestamp": "2025-12-21T07:34:34.798051+00:00", "meta": {"OBJECT_NAME": "FENGYUN 1C DEB", "OBJECT_ID": "1999-025BQA", "EPOCH": "2025-12-17T10:15:00.213120", "MEAN_MOTION": 13.72998867, "ECCENTRICITY": 0.02382994, "INCLINATION": 98.5728, "RA_OF_ASC_NODE": 54.7189, "ARG_OF_PERICENTER": 357.7068, "MEAN_ANOMALY": 17.858, "EPHEMERIS_TYPE": 0, "CLASSIFICATION_TYPE": "U", "NORAD_CAT_ID": 31322, "ELEMENT_SET_NO": 999, "REV_AT_EPOCH": 62340, "BSTAR": 0.00018215464, "MEAN_MOTION_DOT": 1.68e-06, "MEAN_MOTION_DDOT": 0}, "tle": {"line1": "1 31322U 99025BQA 25351.42708580  .00000168  00000+0  18215-3 0  9990", "line2": "2 31322  98.5728  54.7189 0238299 357.7068  17.8580 13.72998867623409"}}, "geometry": {"type": "Point", "coordinates": [-116.21284308452371, 32.81488629592496]}}, {"type": "Feature", "properties": {"norad_id": 31323, "name": "FENGYUN 1C DEB", "group": "fengyun-1c-debris", "lat": -51.82948844864704, "lon": 46.64030787096397, "alt_km": 813.3552598898268, "timestamp": "2025-12-21T07:34:34.798060+00:00", "meta": {"OBJECT_NAME": "FENGYUN 1C DEB", "OBJECT_ID": "1999-025BQB", "EPOCH": "2025-12-20T21:43:51.769920", "MEAN_MOTION": 14.27642156, "ECCENTRICITY": 0.00308917, "INCLINATION": 99.4195, "RA_OF_ASC_NODE": 34.0071, "ARG_OF_PERICENTER": 56.5612, "MEAN_ANOMALY": 303.8514, "EPHEMERIS_TYPE": 0, "CLASSIFICATION_TYPE": "U", "NORAD_CAT_ID": 31323, "ELEMENT_SET_NO": 999, "REV_AT_EPOCH": 64097, "BSTAR": 0.0010024971, "MEAN_MOTION_DOT": 2.433e-05, "MEAN_MOTION_DDOT": 0}, "tle": {"line1": "1 31323U 99025BQB 25354.90546030  .00002433  00000+0  10025-2 0  9994", "line2": "2 31323  99.4195  34.0071 0030891  56.5612 303.8514 14.27642156640970"}}, "geometry": {"type": "Point", "coordinates": [46.64030787096397, -51.82948844864704]}}, {"type": "Feature", "properties": {"norad_id": 31324, "name": "FENGYUN 1C DEB", "group": "fengyun-1c-debris", "lat": 18.316449790548127, "lon": -86.07176838524127, "alt_km": 848.910143533476, "timestamp": "2025-12-21T07:34:34.798069+00:00", "meta": {"OBJECT_NAME": "FENGYUN 1C DEB", "OBJECT_ID": "1999-025BQC", "EPOCH": "2025-12-20T17:54:34.514784", "MEAN_MOTION": 14.14699694, "ECCENTRICITY": 0.00490323, "INCLINATION": 99.1242, "RA_OF_ASC_NODE": 276.3961, "ARG_OF_PERICENTER": 281.3304, "MEAN_ANOMALY": 78.2362, "EPHEMERIS_TYPE": 0, "CLASSIFICATION_TYPE": "U", "NORAD_CAT_ID": 31324, "ELEMENT_SET_NO": 999, "REV_AT_EPOCH": 96599, "BSTAR": 0.00012606483, "MEAN_MOTION_DOT": 1.98e-06, "MEAN_MOTION_DDOT": 0}, "tle": {"line1": "1 31324U 99025BQC 25354.74623281  .00000198  00000+0  12606-3 0  9995", "line2": "2 31324  99.1242 276.3961 0049032 281.3304  78.2362 14.14699694965994"}}, "geometry": {"type": "Point", "coordinates": [-86.07176838524127, 18.316449790548127]}}]}